{
    "links": {
        "self": "http://www.neowsapp.com/rest/v1/neo/3714122?api_key=iIulBulltgU6a56xZRHN4H3l9WmuAYTsLGpBGhQ2"
    },
    "id": "3714122",
    "neo_reference_id": "3714122",
    "name": "(2015 FF36)",
    "designation": "2015 FF36",
    "nasa_jpl_url": "http://ssd.jpl.nasa.gov/sbdb.cgi?sstr=3714122",
    "absolute_magnitude_h": 26.6,
    "estimated_diameter": {
        "kilometers": {
            "estimated_diameter_min": 0.0127219879,
            "estimated_diameter_max": 0.0284472297
        },
        "meters": {
            "estimated_diameter_min": 12.7219878539,
            "estimated_diameter_max": 28.4472296503
        },
        "miles": {
            "estimated_diameter_min": 0.0079050743,
            "estimated_diameter_max": 0.0176762835
        },
        "feet": {
            "estimated_diameter_min": 41.7388066307,
            "estimated_diameter_max": 93.330808926
        }
    },
    "is_potentially_hazardous_asteroid": false,
    "close_approach_data": [
        {
            "close_approach_date": "1951-02-16",
            "close_approach_date_full": "1951-Feb-16 05:40",
            "epoch_date_close_approach": -595621200000,
            "relative_velocity": {
                "kilometers_per_second": "22.6386415135",
                "kilometers_per_hour": "81499.1094485856",
                "miles_per_hour": "50640.3772015392"
            },
            "miss_distance": {
                "astronomical": "0.4431937353",
                "lunar": "172.4023630317",
                "kilometers": "66300838.798223811",
                "miles": "41197430.8789621518"
            },
            "orbiting_body": "Earth"
        },
        {
            "close_approach_date": "2012-02-27",
            "close_approach_date_full": "2012-Feb-27 14:26",
            "epoch_date_close_approach": 1330352760000,
            "relative_velocity": {
                "kilometers_per_second": "17.5139851427",
                "kilometers_per_hour": "63050.3465137315",
                "miles_per_hour": "39177.0333657128"
            },
            "miss_distance": {
                "astronomical": "0.2856362662",
                "lunar": "111.1125075518",
                "kilometers": "42730577.018272994",
                "miles": "26551549.3474515572"
            },
            "orbiting_body": "Earth"
        },
        {
            "close_approach_date": "2015-03-28",
            "close_approach_date_full": "2015-Mar-28 06:16",
            "epoch_date_close_approach": 1427523360000,
            "relative_velocity": {
                "kilometers_per_second": "8.8107214958",
                "kilometers_per_hour": "31718.5973849591",
                "miles_per_hour": "19708.7029140041"
            },
            "miss_distance": {
                "astronomical": "0.0090760116",
                "lunar": "3.5305685124",
                "kilometers": "1357752.003455292",
                "miles": "843667.9735433496"
            },
            "orbiting_body": "Earth"
        },
        {
            "close_approach_date": "2018-07-16",
            "close_approach_date_full": "2018-Jul-16 23:53",
            "epoch_date_close_approach": 1531785180000,
            "relative_velocity": {
                "kilometers_per_second": "15.5949267434",
                "kilometers_per_hour": "56141.7362763455",
                "miles_per_hour": "34884.291632377"
            },
            "miss_distance": {
                "astronomical": "0.0776117357",
                "lunar": "30.1909651873",
                "kilometers": "11610550.347722959",
                "miles": "7214461.4470524742"
            },
            "orbiting_body": "Mars"
        }
    ],
    "orbital_data": {
        "orbit_id": "6",
        "orbit_determination_date": "2017-04-06 08:34:52",
        "first_observation_date": "2015-03-14",
        "last_observation_date": "2015-03-26",
        "data_arc_in_days": 12,
        "observations_used": 54,
        "orbit_uncertainty": "7",
        "minimum_orbit_intersection": ".000209497",
        "jupiter_tisserand_invariant": "3.564",
        "epoch_osculation": "2459000.5",
        "eccentricity": ".5334020732094572",
        "semi_major_axis": "2.087660032002324",
        "inclination": ".1770658632886334",
        "ascending_node_longitude": "6.078724114073268",
        "orbital_period": "1101.762767792907",
        "perihelion_distance": ".9740978427757628",
        "perihelion_argument": "205.4955487036459",
        "aphelion_distance": "3.201222221228886",
        "perihelion_time": "2459332.271494721167",
        "mean_anomaly": "251.5939605230241",
        "mean_motion": ".3267491065442025",
        "equinox": "J2000",
        "orbit_class": {
            "orbit_class_type": "APO",
            "orbit_class_description": "Near-Earth asteroid orbits which cross the Earth’s orbit similar to that of 1862 Apollo",
            "orbit_class_range": "a (semi-major axis) > 1.0 AU; q (perihelion) < 1.017 AU"
        }
    },
    "is_sentry_object": false
}